STARLINK-32753          
1 62481U 24254V   26068.21523886  .00030014  00000+0  10959-2 0  9998
2 62481  42.9998  18.7697 0001683 279.1962  80.8700 15.27576831 67580
FLOCK 4G-4              
1 62659U 25009BC  26068.75333732  .00011866  00000+0  45294-3 0  9997
2 62659  97.3994 150.7963 0001598 343.4316  16.6870 15.26803327121323
